ALOS-4 (DAICHI-4)       
1 60182U 24123A   24263.00395031  .00001915  00000+0  26325-3 0  9993
2 60182  97.9218 358.3138 0001489  92.8465 267.2917 14.79463696 11812
